NAVSTAR 53 (USA 175)
1 28129U 03058A   26118.22569676 -.00000118  00000+0  00000+0 0  9998
2 28129  54.9982  25.1168 0002764 327.9918  32.0032  1.92678524163501
